start=new Date('2023-06-08T00:00:00.000Z').valueOf();
sats=[{"RA_OF_ASC_NODE":"312.0523","ELEMENT_SET_NO":"999","PERIOD":"95.591","CENTER_NAME":"EARTH","COUNTRY_CODE":"US","TLE_LINE1":"1 48638U 21044A   23158.83976962  .00023420  00000-0  15853-2 0  9994","OBJECT_NAME":"STARLINK-2758","NORAD_CAT_ID":"48638","TLE_LINE2":"2 48638  53.0553 312.0523 0000892  69.2854 290.8231 15.06415285112175","MEAN_MOTION_DDOT":"0.0000000000000","SEMIMAJOR_AXIS":"6925.302","CLASSIFICATION_TYPE":"U","LAUNCH_DATE":"2021-05-26","ARG_OF_PERICENTER":"69.2854","REF_FRAME":"TEME","SITE":"AFETR","TIME_SYSTEM":"UTC","EPHEMERIS_TYPE":"0","OBJECT_TYPE":"PAYLOAD","MEAN_ELEMENT_THEORY":"SGP4","OBJECT_ID":"2021-044A","DECAY_DATE":null,"APOAPSIS":"547.784","MEAN_MOTION_DOT":"0.00023420","MEAN_MOTION":"15.06415285","RCS_SIZE":"LARGE","FILE":"3927436","MEAN_ANOMALY":"290.8231","PERIAPSIS":"546.549","INCLINATION":"53.0553","REV_AT_EPOCH":"11217","BSTAR":"0.00158530000000","EPOCH":"2023-06-07T20:09:16.095168","ECCENTRICITY":"0.00008920","GP_ID":"233430513"},{"MEAN_MOTION":"15.06437013","FILE":"3927436","RCS_SIZE":"LARGE","MEAN_MOTION_DOT":"0.00022979","APOAPSIS":"547.949","DECAY_DATE":null,"MEAN_ELEMENT_THEORY":"SGP4","OBJECT_ID":"2021-044B","ECCENTRICITY":"0.00012260","GP_ID":"233430263","EPOCH":"2023-06-07T19:47:59.997408","BSTAR":"0.00155500000000","REV_AT_EPOCH":"11217","INCLINATION":"53.0540","PERIAPSIS":"546.251","MEAN_ANOMALY":"279.2909","CENTER_NAME":"EARTH","ELEMENT_SET_NO":"999","PERIOD":"95.590","RA_OF_ASC_NODE":"312.1189","TIME_SYSTEM":"UTC","SITE":"AFETR","EPHEMERIS_TYPE":"0","OBJECT_TYPE":"PAYLOAD","REF_FRAME":"TEME","NORAD_CAT_ID":"48639","OBJECT_NAME":"STARLINK-2739","ARG_OF_PERICENTER":"80.8219","LAUNCH_DATE":"2021-05-26","CLASSIFICATION_TYPE":"U","TLE_LINE2":"2 48639  53.0540 312.1189 0001226  80.8219 279.2909 15.06437013112173","SEMIMAJOR_AXIS":"6925.235","MEAN_MOTION_DDOT":"0.0000000000000","COUNTRY_CODE":"US","TLE_LINE1":"1 48639U 21044B   23158.82499997  .00022979  00000-0  15550-2 0  9994"},{"BSTAR":"0.00163980000000","PERIAPSIS":"546.359","MEAN_ANOMALY":"272.9804","INCLINATION":"53.0544","REV_AT_EPOCH":"11215","GP_ID":"233431015","ECCENTRICITY":"0.00011200","EPOCH":"2023-06-07T18:03:15.229440","DECAY_DATE":null,"OBJECT_ID":"2021-044C","MEAN_ELEMENT_THEORY":"SGP4","FILE":"3927436","RCS_SIZE":"LARGE","MEAN_MOTION":"15.06425783","APOAPSIS":"547.910","MEAN_MOTION_DOT":"0.00024245","SEMIMAJOR_AXIS":"6925.270","TLE_LINE2":"2 48640  53.0544 312.7257 0001120  87.1313 272.9804 15.06425783112152","CLASSIFICATION_TYPE":"U","MEAN_MOTION_DDOT":"0.0000000000000","LAUNCH_DATE":"2021-05-26","ARG_OF_PERICENTER":"87.1313","NORAD_CAT_ID":"48640","OBJECT_NAME":"STARLINK-2736","TLE_LINE1":"1 48640U 21044C   23158.75225960  .00024245  00000-0  16398-2 0  9994","COUNTRY_CODE":"US","EPHEMERIS_TYPE":"0","OBJECT_TYPE":"PAYLOAD","SITE":"AFETR","TIME_SYSTEM":"UTC","REF_FRAME":"TEME","CENTER_NAME":"EARTH","RA_OF_ASC_NODE":"312.7257","PERIOD":"95.591","ELEMENT_SET_NO":"999"},{"DECAY_DATE":null,"OBJECT_ID":"2021-044D","MEAN_ELEMENT_THEORY":"SGP4","RCS_SIZE":"LARGE","FILE":"3927436","MEAN_MOTION":"15.06435965","APOAPSIS":"548.037","MEAN_MOTION_DOT":"0.00024909","BSTAR":"0.00168360000000","PERIAPSIS":"546.170","INCLINATION":"53.0537","MEAN_ANOMALY":"278.9113","REV_AT_EPOCH":"11209","GP_ID":"233431765","ECCENTRICITY":"0.00013480","EPOCH":"2023-06-07T18:21:06.801984","CENTER_NAME":"EARTH","RA_OF_ASC_NODE":"317.3895","ELEMENT_SET_NO":"999","PERIOD":"95.590","SEMIMAJOR_AXIS":"6925.238","TLE_LINE2":"2 48641  53.0537 317.3895 0001348  81.2028 278.9113 15.06435965112099","MEAN_MOTION_DDOT":"0.0000000000000","CLASSIFICATION_TYPE":"U","ARG_OF_PERICENTER":"81.2028","LAUNCH_DATE":"2021-05-26","NORAD_CAT_ID":"48641","OBJECT_NAME":"STARLINK-2754","TLE_LINE1":"1 48641U 21044D   23158.76466206  .00024909  00000-0  16836-2 0  9990","COUNTRY_CODE":"US","OBJECT_TYPE":"PAYLOAD","EPHEMERIS_TYPE":"0","SITE":"AFETR","TIME_SYSTEM":"UTC","REF_FRAME":"TEME"},{"RCS_SIZE":"LARGE","FILE":"3927436","MEAN_MOTION":"15.06440252","MEAN_MOTION_DOT":"0.00024046","APOAPSIS":"547.788","DECAY_DATE":null,"OBJECT_ID":"2021-044E","MEAN_ELEMENT_THEORY":"SGP4","GP_ID":"233430014","ECCENTRICITY":"0.00010070","EPOCH":"2023-06-07T17:05:26.267712","BSTAR":"0.00162590000000","REV_AT_EPOCH":"11208","INCLINATION":"53.0543","PERIAPSIS":"546.393","MEAN_ANOMALY":"291.8561","CENTER_NAME":"EARTH","ELEMENT_SET_NO":"999","PERIOD":"95.590","RA_OF_ASC_NODE":"317.6287","OBJECT_TYPE":"PAYLOAD","EPHEMERIS_TYPE":"0","SITE":"AFETR","TIME_SYSTEM":"UTC","REF_FRAME":"TEME","ARG_OF_PERICENTER":"68.2535","LAUNCH_DATE":"2021-05-26","TLE_LINE2":"2 48642  53.0543 317.6287 0001007  68.2535 291.8561 15.06440252112080","MEAN_MOTION_DDOT":"0.0000000000000","SEMIMAJOR_AXIS":"6925.225","CLASSIFICATION_TYPE":"U","NORAD_CAT_ID":"48642","OBJECT_NAME":"STARLINK-2646","TLE_LINE1":"1 48642U 21044E   23158.71210958  .00024046  00000-0  16259-2 0  9998","COUNTRY_CODE":"US"},{"DECAY_DATE":null,"OBJECT_ID":"2021-044F","MEAN_ELEMENT_THEORY":"SGP4","FILE":"3927436","RCS_SIZE":"LARGE","MEAN_MOTION":"15.06433302","MEAN_MOTION_DOT":"0.00022896","APOAPSIS":"547.931","BSTAR":"0.00154960000000","REV_AT_EPOCH":"11210","INCLINATION":"53.0540","PERIAPSIS":"546.292","MEAN_ANOMALY":"279.0680","GP_ID":"233430763","ECCENTRICITY":"0.00011840","EPOCH":"2023-06-07T19:49:59.096352","CENTER_NAME":"EARTH","ELEMENT_SET_NO":"999","PERIOD":"95.590","RA_OF_ASC_NODE":"317.1067","ARG_OF_PERICENTER":"81.0443","LAUNCH_DATE":"2021-05-26","CLASSIFICATION_TYPE":"U","TLE_LINE2":"2 48643  53.0540 317.1067 0001184  81.0443 279.0680 15.06433302112107","SEMIMAJOR_AXIS":"6925.246","MEAN_MOTION_DDOT":"0.0000000000000","OBJECT_NAME":"STARLINK-2704","NORAD_CAT_ID":"48643","TLE_LINE1":"1 48643U 21044F   23158.82637843  .00022896  00000-0  15496-2 0  9990","COUNTRY_CODE":"US","EPHEMERIS_TYPE":"0","OBJECT_TYPE":"PAYLOAD","TIME_SYSTEM":"UTC","SITE":"AFETR","REF_FRAME":"TEME"},{"GP_ID":"233431515","ECCENTRICITY":"0.00011700","EPOCH":"2023-06-07T19:46:02.268768","BSTAR":"0.00162350000000","MEAN_ANOMALY":"278.2772","PERIAPSIS":"546.293","INCLINATION":"53.0552","REV_AT_EPOCH":"11210","RCS_SIZE":"LARGE","FILE":"3927436","MEAN_MOTION":"15.06435921","APOAPSIS":"547.914","MEAN_MOTION_DOT":"0.00024007","DECAY_DATE":null,"OBJECT_ID":"2021-044G","MEAN_ELEMENT_THEORY":"SGP4","OBJECT_TYPE":"PAYLOAD","EPHEMERIS_TYPE":"0","TIME_SYSTEM":"UTC","SITE":"AFETR","REF_FRAME":"TEME","SEMIMAJOR_AXIS":"6925.238","TLE_LINE2":"2 48644  53.0552 317.1250 0001170  81.8349 278.2772 15.06435921112105","CLASSIFICATION_TYPE":"U","MEAN_MOTION_DDOT":"0.0000000000000","ARG_OF_PERICENTER":"81.8349","LAUNCH_DATE":"2021-05-26","OBJECT_NAME":"STARLINK-2695","NORAD_CAT_ID":"48644","TLE_LINE1":"1 48644U 21044G   23158.82363737  .00024007  00000-0  16235-2 0  9997","COUNTRY_CODE":"US","CENTER_NAME":"EARTH","RA_OF_ASC_NODE":"317.1250","ELEMENT_SET_NO":"999","PERIOD":"95.590"},{"PERIOD":"95.590","ELEMENT_SET_NO":"999","RA_OF_ASC_NODE":"317.4378","CENTER_NAME":"EARTH","TLE_LINE1":"1 48645U 21044H   23158.75361068  .00022912  00000-0  15509-2 0  9991","COUNTRY_CODE":"US","LAUNCH_DATE":"2021-05-26","ARG_OF_PERICENTER":"81.6883","TLE_LINE2":"2 48645  53.0535 317.4378 0001168  81.6883 278.4239 15.06427207112095","SEMIMAJOR_AXIS":"6925.265","CLASSIFICATION_TYPE":"U","MEAN_MOTION_DDOT":"0.0000000000000","NORAD_CAT_ID":"48645","OBJECT_NAME":"STARLINK-2733","REF_FRAME":"TEME","OBJECT_TYPE":"PAYLOAD","EPHEMERIS_TYPE":"0","SITE":"AFETR","TIME_SYSTEM":"UTC","OBJECT_ID":"2021-044H","MEAN_ELEMENT_THEORY":"SGP4","DECAY_DATE":null,"MEAN_MOTION_DOT":"0.00022912","APOAPSIS":"547.939","RCS_SIZE":"LARGE","FILE":"3927436","MEAN_MOTION":"15.06427207","REV_AT_EPOCH":"11209","INCLINATION":"53.0535","PERIAPSIS":"546.321","MEAN_ANOMALY":"278.4239","BSTAR":"0.00155090000000","EPOCH":"2023-06-07T18:05:11.962752","GP_ID":"233431266","ECCENTRICITY":"0.00011680"},{"COUNTRY_CODE":"US","TLE_LINE1":"1 48646U 21044J   23158.81626283  .00017925  00000-0  12184-2 0  9996","NORAD_CAT_ID":"48646","OBJECT_NAME":"STARLINK-2732","LAUNCH_DATE":"2021-05-26","ARG_OF_PERICENTER":"105.9095","TLE_LINE2":"2 48646  53.0546 317.1583 0001170 105.9095 254.2023 15.06424182112105","MEAN_MOTION_DDOT":"0.0000000000000","SEMIMAJOR_AXIS":"6925.274","CLASSIFICATION_TYPE":"U","REF_FRAME":"TEME","TIME_SYSTEM":"UTC","SITE":"AFETR","EPHEMERIS_TYPE":"0","OBJECT_TYPE":"PAYLOAD","PERIOD":"95.591","ELEMENT_SET_NO":"999","RA_OF_ASC_NODE":"317.1583","CENTER_NAME":"EARTH","REV_AT_EPOCH":"11210","MEAN_ANOMALY":"254.2023","PERIAPSIS":"546.329","INCLINATION":"53.0546","BSTAR":"0.00121840000000","EPOCH":"2023-06-07T19:35:25.108512","ECCENTRICITY":"0.00011700","GP_ID":"233430514","MEAN_ELEMENT_THEORY":"SGP4","OBJECT_ID":"2021-044J","DECAY_DATE":null,"MEAN_MOTION_DOT":"0.00017925","APOAPSIS":"547.950","MEAN_MOTION":"15.06424182","RCS_SIZE":"MEDIUM","FILE":"3927436"},{"DECAY_DATE":null,"MEAN_ELEMENT_THEORY":"SGP4","OBJECT_ID":"2021-044K","MEAN_MOTION":"15.06437064","FILE":"3927436","RCS_SIZE":"LARGE","APOAPSIS":"547.776","MEAN_MOTION_DOT":"0.00027932","BSTAR":"0.00188480000000","MEAN_ANOMALY":"277.5598","PERIAPSIS":"546.424","INCLINATION":"53.0541","REV_AT_EPOCH":"11209","ECCENTRICITY":"0.00009760","GP_ID":"233430264","EPOCH":"2023-06-07T17:54:34.376544","CENTER_NAME":"EARTH","RA_OF_ASC_NODE":"317.4719","ELEMENT_SET_NO":"999","PERIOD":"95.590","OBJECT_NAME":"STARLINK-2691","NORAD_CAT_ID":"48647","TLE_LINE2":"2 48647  53.0541 317.4719 0000976  82.5502 277.5598 15.06437064112097","SEMIMAJOR_AXIS":"6925.235","MEAN_MOTION_DDOT":"0.0000000000000","CLASSIFICATION_TYPE":"U","LAUNCH_DATE":"2021-05-26","ARG_OF_PERICENTER":"82.5502","COUNTRY_CODE":"US","TLE_LINE1":"1 48647U 21044K   23158.74623121  .00027932  00000-0  18848-2 0  9999","SITE":"AFETR","TIME_SYSTEM":"UTC","OBJECT_TYPE":"PAYLOAD","EPHEMERIS_TYPE":"0","REF_FRAME":"TEME"}];
